{"fetched_at":"2026-06-14T17:24:05Z","count":17113,"tles":[{"name":"GLOBALSTAR M091","line1":"1 37741U 11033C   26164.54950076 -.00000081  00000+0  12733-3 0  9993","line2":"2 37741  51.9993 252.9908 0000388 145.2154 228.7820 12.62263842688823","category":"Other"},{"name":"GLOBALSTAR M072","line1":"1 31574U 07020D   26164.55417056 -.00000100  00000+0 -22223-3 0  9997","line2":"2 31574  51.9920 109.9170 0001406 322.2382 209.7819 11.91658502874540","category":"Other"},{"name":"GLOBALSTAR M074","line1":"1 37189U 10054B   26164.62374407 -.00000123  00000+0 -10916-3 0  9997","line2":"2 37189  52.0003 118.7824 0000468  47.5544 124.6708 12.62268404722709","category":"Other"},{"name":"GLOBALSTAR M077","line1":"1 37191U 10054D   26164.34413558 -.00000050  00000+0  52007-3 0  9995","line2":"2 37191  51.9925 189.0508 0002788 165.7858 207.5281 11.67547741720692","category":"Other"},{"name":"GLOBALSTAR M097","line1":"1 39072U 13005A   26164.52035958 -.00000095  00000+0  49917-4 0  9994","line2":"2 39072  52.0043 254.4991 0000372 126.2084 233.8817 12.62247148616446","category":"Other"},{"name":"GLOBALSTAR M081","line1":"1 37743U 11033E   26164.42378307 -.00000068  00000+0  19752-3 0  9996","line2":"2 37743  51.9937 207.1025 0000170 122.0072 340.1380 12.62264962689461","category":"Other"},{"name":"GLOBALSTAR M088","line1":"1 37740U 11033B   26164.61544972 -.00000098  00000+0  30875-4 0  9990","line2":"2 37740  52.0225 289.8194 0000763 121.1838 251.6203 12.62268648688040","category":"Other"},{"name":"GLOBALSTAR M069","line1":"1 31573U 07020C   26164.58557404 -.00000072  00000+0  18536-3 0  9990","line2":"2 31573  52.0032 262.3214 0002415 140.3452 232.8824 12.23470996878368","category":"Other"},{"name":"GLOBALSTAR M096","line1":"1 39075U 13005D   26164.42781796 -.00000068  00000+0  19813-3 0  9995","line2":"2 39075  52.0054 211.0450 0000080 187.6632 172.4233 12.62265573616910","category":"Other"},{"name":"GLOBALSTAR M086","line1":"1 38045U 11080F   26164.21014719 -.00000090  00000+0  78833-4 0  9996","line2":"2 38045  51.9914 340.4978 0001663  60.8642 110.6020 12.62286665669159","category":"Other"},{"name":"GLOBALSTAR M087","line1":"1 52888U 22064A   26164.04491357 -.00000111  00000+0 -42113-4 0  9996","line2":"2 52888  52.0003  75.0631 0000682  29.1879 330.9026 12.62268976190616","category":"Other"},{"name":"GLOBALSTAR M094","line1":"1 39074U 13005C   26164.25598259 -.00000095  00000+0  49758-4 0  9997","line2":"2 39074  51.9932 162.7684 0000304 351.3928   8.6934 12.62268612617972","category":"Other"},{"name":"GLOBALSTAR M078","line1":"1 39076U 13005E   26164.63836867 -.00000189  00000+0 -47637-3 0  9999","line2":"2 39076  51.9890 294.4173 0000529 214.5079 145.5753 12.62257981615569","category":"Other"},{"name":"GLOBALSTAR M095","line1":"1 39077U 13005F   26164.50676035 -.00000105  00000+0 -46396-5 0  9996","line2":"2 39077  52.0095 292.4176 0000300 127.0403 233.0491 12.62263363615402","category":"Other"},{"name":"GLOBALSTAR M092","line1":"1 38043U 11080D   26164.02169095 -.00000114  00000+0 -54695-4 0  9999","line2":"2 38043  52.0092  77.5769 0000625  56.7408 317.2415 12.62266926667523","category":"Other"},{"name":"GLOBALSTAR M075","line1":"1 37192U 10054E   26164.33242617 -.00000094  00000+0  54071-4 0  9993","line2":"2 37192  51.9917 161.9295 0000079  24.7875  82.9826 12.62267394721454","category":"Other"},{"name":"GLOBALSTAR M093","line1":"1 39073U 13005B   26164.41444418 -.00000082  00000+0  12048-3 0  9998","line2":"2 39073  52.0102 248.1667 0000235 102.7360 257.3533 12.62265838616382","category":"Other"},{"name":"GLOBALSTAR M089","line1":"1 37744U 11033F   26164.28528086 -.00000084  00000+0  10990-3 0  9995","line2":"2 37744  51.9904 161.6826 0000346  92.8681 280.4367 12.62267200690296","category":"Other"},{"name":"GLOBALSTAR M079","line1":"1 37188U 10054A   26164.59729324 -.00000114  00000+0 -57777-4 0  9991","line2":"2 37188  52.0029 119.5977 0000632  15.4577 156.3092 12.62266083722098","category":"Other"},{"name":"GLOBALSTAR M073","line1":"1 37193U 10054F   26164.50503955 -.00000115  00000+0 -63847-4 0  9994","line2":"2 37193  52.0064  75.5006 0000857  40.9474 130.1513 12.62262114723466","category":"Other"}]}