OBJECT_NAME,OBJECT_ID,EPOCH,MEAN_MOTION,ECCENTRICITY,INCLINATION,RA_OF_ASC_NODE,ARG_OF_PERICENTER,MEAN_ANOMALY,EPHEMERIS_TYPE,CLASSIFICATION_TYPE,NORAD_CAT_ID,ELEMENT_SET_NO,REV_AT_EPOCH,BSTAR,MEAN_MOTION_DOT,MEAN_MOTION_DDOT
GLOBALSTAR M069,2007-020C,2026-06-13T14:03:13.597056,12.23470996,.00024157,52.0032,262.3214,140.3452,232.8824,0,U,31573,999,87836,.1853593E-3,-.72E-6,0
GLOBALSTAR M072,2007-020D,2026-06-13T13:18:00.336384,11.91658502,.00014069,51.9920,109.9170,322.2382,209.7819,0,U,31574,999,87454,-.22222501E-3,-.1E-5,0
GLOBALSTAR M079,2010-054A,2026-06-13T14:20:06.135936,12.62266083,.00006323,52.0029,119.5977,15.4577,156.3092,0,U,37188,999,72209,-.57776832E-4,-.114E-5,0
GLOBALSTAR M074,2010-054B,2026-06-13T14:58:11.487648,12.62268404,.00004685,52.0003,118.7824,47.5544,124.6708,0,U,37189,999,72270,-.10915512E-3,-.123E-5,0
GLOBALSTAR M077,2010-054D,2026-06-13T08:15:33.314112,11.67547741,.00027883,51.9925,189.0508,165.7858,207.5281,0,U,37191,999,72069,.52007226E-3,-.5E-6,0
GLOBALSTAR M075,2010-054E,2026-06-13T07:58:41.621088,12.62267394,.00000792,51.9917,161.9295,24.7875,82.9826,0,U,37192,999,72145,.54071321E-4,-.94E-6,0
GLOBALSTAR M073,2010-054F,2026-06-13T12:07:15.417120,12.62262114,.00008575,52.0064,75.5006,40.9474,130.1513,0,U,37193,999,72346,-.63846921E-4,-.115E-5,0
GLOBALSTAR M088,2011-033B,2026-06-13T14:46:14.855808,12.62268648,.00007639,52.0225,289.8194,121.1838,251.6203,0,U,37740,999,68804,.30875432E-4,-.98E-6,0
GLOBALSTAR M091,2011-033C,2026-06-13T13:11:16.865664,12.62263842,.00003882,51.9993,252.9908,145.2154,228.7820,0,U,37741,999,68882,.12732601E-3,-.81E-6,0
GLOBALSTAR M081,2011-033E,2026-06-13T10:10:14.857248,12.62264962,.00001706,51.9937,207.1025,122.0072,340.1380,0,U,37743,999,68946,.19751574E-3,-.68E-6,0
GLOBALSTAR M089,2011-033F,2026-06-13T06:50:48.266304,12.62267200,.0000346,51.9904,161.6826,92.8681,280.4367,0,U,37744,999,69029,.1099E-3,-.84E-6,0
GLOBALSTAR M092,2011-080D,2026-06-13T00:31:14.098080,12.62266926,.00006253,52.0092,77.5769,56.7408,317.2415,0,U,38043,999,66752,-.54694602E-4,-.114E-5,0
GLOBALSTAR M086,2011-080F,2026-06-13T05:02:36.717216,12.62286665,.0001663,51.9914,340.4978,60.8642,110.6020,0,U,38045,999,66915,.78833222E-4,-.9E-6,0
GLOBALSTAR M097,2013-005A,2026-06-13T12:29:19.067712,12.62247148,.00003722,52.0043,254.4991,126.2084,233.8817,0,U,39072,999,61644,.49917297E-4,-.95E-6,0
GLOBALSTAR M093,2013-005B,2026-06-13T09:56:47.977152,12.62265838,.00002353,52.0102,248.1667,102.7360,257.3533,0,U,39073,999,61638,.12048402E-3,-.82E-6,0
GLOBALSTAR M094,2013-005C,2026-06-13T06:08:36.895776,12.62268612,.0000304,51.9932,162.7684,351.3928,8.6934,0,U,39074,999,61797,.49758E-4,-.95E-6,0
GLOBALSTAR M096,2013-005D,2026-06-13T10:16:03.471744,12.62265573,.00000804,52.0054,211.0450,187.6632,172.4233,0,U,39075,999,61691,.19812927E-3,-.68E-6,0
GLOBALSTAR M078,2013-005E,2026-06-13T15:19:15.053088,12.62257981,.00005291,51.9890,294.4173,214.5079,145.5753,0,U,39076,999,61556,-.47637377E-3,-.189E-5,0
GLOBALSTAR M095,2013-005F,2026-06-13T12:09:44.094240,12.62263363,.00003003,52.0095,292.4176,127.0403,233.0491,0,U,39077,999,61540,-.4639631E-5,-.105E-5,0
GLOBALSTAR M087,2022-064A,2026-06-13T01:04:40.532448,12.62268976,.00006822,52.0003,75.0631,29.1879,330.9026,0,U,52888,999,19061,-.42113304E-4,-.111E-5,0
